CCSDS_OMM_VERS = 2.0
CREATION_DATE  = 
ORIGINATOR     = 

OBJECT_NAME    = SL-3 R/B
OBJECT_ID      = 1982-079B
CENTER_NAME    = EARTH
REF_FRAME      = TEME
TIME_SYSTEM    = UTC
MEAN_ELEMENT_THEORY = SGP/SGP4

EPOCH          = 2026-03-13T22:22:29.389440
MEAN_MOTION    = 15.24867789
ECCENTRICITY   = .00252373
INCLINATION    = 81.1479
RA_OF_ASC_NODE = 188.0680
ARG_OF_PERICENTER = 150.5542
MEAN_ANOMALY   = 209.7119

EPHEMERIS_TYPE = 0
CLASSIFICATION_TYPE = U
NORAD_CAT_ID   = 13403
ELEMENT_SET_NO = 999
REV_AT_EPOCH   = 37834
BSTAR          = .32446296E-3
MEAN_MOTION_DOT = .8164E-4
MEAN_MOTION_DDOT = 0

CCSDS_OMM_VERS = 2.0
CREATION_DATE  = 
ORIGINATOR     = 

OBJECT_NAME    = SL-14 R/B
OBJECT_ID      = 1982-092B
CENTER_NAME    = EARTH
REF_FRAME      = TEME
TIME_SYSTEM    = UTC
MEAN_ELEMENT_THEORY = SGP/SGP4

EPOCH          = 2026-03-13T15:11:42.843264
MEAN_MOTION    = 14.86670719
ECCENTRICITY   = .00188393
INCLINATION    = 82.5689
RA_OF_ASC_NODE = 137.7115
ARG_OF_PERICENTER = 289.4979
MEAN_ANOMALY   = 230.7637

EPHEMERIS_TYPE = 0
CLASSIFICATION_TYPE = U
NORAD_CAT_ID   = 13553
ELEMENT_SET_NO = 999
REV_AT_EPOCH   = 32951
BSTAR          = .56604254E-4
MEAN_MOTION_DOT = .528E-5
MEAN_MOTION_DDOT = 0

CCSDS_OMM_VERS = 2.0
CREATION_DATE  = 
ORIGINATOR     = 

OBJECT_NAME    = SL-3 R/B
OBJECT_ID      = 1983-010B
CENTER_NAME    = EARTH
REF_FRAME      = TEME
TIME_SYSTEM    = UTC
MEAN_ELEMENT_THEORY = SGP/SGP4

EPOCH          = 2026-03-13T06:07:19.512480
MEAN_MOTION    = 15.46493922
ECCENTRICITY   = .0017762
INCLINATION    = 81.1059
RA_OF_ASC_NODE = 357.8766
ARG_OF_PERICENTER = 39.4433
MEAN_ANOMALY   = 320.8101

EPHEMERIS_TYPE = 0
CLASSIFICATION_TYPE = U
NORAD_CAT_ID   = 13819
ELEMENT_SET_NO = 999
REV_AT_EPOCH   = 35849
BSTAR          = .34825319E-3
MEAN_MOTION_DOT = .17425E-3
MEAN_MOTION_DDOT = 0

CCSDS_OMM_VERS = 2.0
CREATION_DATE  = 
ORIGINATOR     = 

OBJECT_NAME    = SL-3 R/B
OBJECT_ID      = 1983-075B
CENTER_NAME    = EARTH
REF_FRAME      = TEME
TIME_SYSTEM    = UTC
MEAN_ELEMENT_THEORY = SGP/SGP4

EPOCH          = 2026-03-13T23:30:58.793760
MEAN_MOTION    = 15.38528561
ECCENTRICITY   = .00205331
INCLINATION    = 97.6143
RA_OF_ASC_NODE = 77.7198
ARG_OF_PERICENTER = 209.6151
MEAN_ANOMALY   = 150.3932

EPHEMERIS_TYPE = 0
CLASSIFICATION_TYPE = U
NORAD_CAT_ID   = 14208
ELEMENT_SET_NO = 999
REV_AT_EPOCH   = 33081
BSTAR          = .31974448E-3
MEAN_MOTION_DOT = .12162E-3
MEAN_MOTION_DDOT = 0

CCSDS_OMM_VERS = 2.0
CREATION_DATE  = 
ORIGINATOR     = 

OBJECT_NAME    = COSMOS 1536
OBJECT_ID      = 1984-013A
CENTER_NAME    = EARTH
REF_FRAME      = TEME
TIME_SYSTEM    = UTC
MEAN_ELEMENT_THEORY = SGP/SGP4

EPOCH          = 2026-03-13T18:59:15.588960
MEAN_MOTION    = 15.23883436
ECCENTRICITY   = .00124678
INCLINATION    = 82.5428
RA_OF_ASC_NODE = 103.7728
ARG_OF_PERICENTER = 267.2106
MEAN_ANOMALY   = 92.7704

EPHEMERIS_TYPE = 0
CLASSIFICATION_TYPE = U
NORAD_CAT_ID   = 14699
ELEMENT_SET_NO = 999
REV_AT_EPOCH   = 27324
BSTAR          = .29296683E-3
MEAN_MOTION_DOT = .7116E-4
MEAN_MOTION_DDOT = 0

CCSDS_OMM_VERS = 2.0
CREATION_DATE  = 
ORIGINATOR     = 

OBJECT_NAME    = SL-14 R/B
OBJECT_ID      = 1984-027B
CENTER_NAME    = EARTH
REF_FRAME      = TEME
TIME_SYSTEM    = UTC
MEAN_ELEMENT_THEORY = SGP/SGP4

EPOCH          = 2026-03-13T22:26:57.981120
MEAN_MOTION    = 14.85981509
ECCENTRICITY   = .00170227
INCLINATION    = 82.5392
RA_OF_ASC_NODE = 241.0296
ARG_OF_PERICENTER = 323.2528
MEAN_ANOMALY   = 36.7520

EPHEMERIS_TYPE = 0
CLASSIFICATION_TYPE = U
NORAD_CAT_ID   = 14820
ELEMENT_SET_NO = 999
REV_AT_EPOCH   = 24826
BSTAR          = .66583319E-4
MEAN_MOTION_DOT = .607E-5
MEAN_MOTION_DDOT = 0

CCSDS_OMM_VERS = 2.0
CREATION_DATE  = 
ORIGINATOR     = 

OBJECT_NAME    = SL-8 R/B
OBJECT_ID      = 1985-006B
CENTER_NAME    = EARTH
REF_FRAME      = TEME
TIME_SYSTEM    = UTC
MEAN_ELEMENT_THEORY = SGP/SGP4

EPOCH          = 2026-03-13T23:35:55.106016
MEAN_MOTION    = 14.37786524
ECCENTRICITY   = .00182666
INCLINATION    = 74.0432
RA_OF_ASC_NODE = 253.2469
ARG_OF_PERICENTER = 169.9686
MEAN_ANOMALY   = 310.0381

EPHEMERIS_TYPE = 0
CLASSIFICATION_TYPE = U
NORAD_CAT_ID   = 15483
ELEMENT_SET_NO = 999
REV_AT_EPOCH   = 15464
BSTAR          = .13621748E-3
MEAN_MOTION_DOT = .385E-5
MEAN_MOTION_DDOT = 0

CCSDS_OMM_VERS = 2.0
CREATION_DATE  = 
ORIGINATOR     = 

OBJECT_NAME    = SL-12 R/B(2)
OBJECT_ID      = 1985-042D
CENTER_NAME    = EARTH
REF_FRAME      = TEME
TIME_SYSTEM    = UTC
MEAN_ELEMENT_THEORY = SGP/SGP4

EPOCH          = 2026-03-13T10:37:05.989152
MEAN_MOTION    = 14.21983557
ECCENTRICITY   = .00330851
INCLINATION    = 71.1063
RA_OF_ASC_NODE = 79.7994
ARG_OF_PERICENTER = 121.9535
MEAN_ANOMALY   = 41.1642

EPHEMERIS_TYPE = 0
CLASSIFICATION_TYPE = U
NORAD_CAT_ID   = 15772
ELEMENT_SET_NO = 999
REV_AT_EPOCH   = 11492
BSTAR          = .10268085E-3
MEAN_MOTION_DOT = .181E-5
MEAN_MOTION_DDOT = 0

CCSDS_OMM_VERS = 2.0
CREATION_DATE  = 
ORIGINATOR     = 

OBJECT_NAME    = SL-14 R/B
OBJECT_ID      = 1985-069B
CENTER_NAME    = EARTH
REF_FRAME      = TEME
TIME_SYSTEM    = UTC
MEAN_ELEMENT_THEORY = SGP/SGP4

EPOCH          = 2026-03-13T22:03:12.070080
MEAN_MOTION    = 14.86438606
ECCENTRICITY   = .00188543
INCLINATION    = 82.5292
RA_OF_ASC_NODE = 20.9568
ARG_OF_PERICENTER = 173.5972
MEAN_ANOMALY   = 186.5489

EPHEMERIS_TYPE = 0
CLASSIFICATION_TYPE = U
NORAD_CAT_ID   = 15945
ELEMENT_SET_NO = 999
REV_AT_EPOCH   = 17346
BSTAR          = .66932996E-4
MEAN_MOTION_DOT = .617E-5
MEAN_MOTION_DDOT = 0

CCSDS_OMM_VERS = 2.0
CREATION_DATE  = 
ORIGINATOR     = 

OBJECT_NAME    = SL-16 R/B
OBJECT_ID      = 1985-097B
CENTER_NAME    = EARTH
REF_FRAME      = TEME
TIME_SYSTEM    = UTC
MEAN_ELEMENT_THEORY = SGP/SGP4

EPOCH          = 2026-03-13T21:24:45.178848
MEAN_MOTION    = 14.16598144
ECCENTRICITY   = .0009793
INCLINATION    = 71.0019
RA_OF_ASC_NODE = 131.7073
ARG_OF_PERICENTER = 254.5746
MEAN_ANOMALY   = 278.0960

EPHEMERIS_TYPE = 0
CLASSIFICATION_TYPE = U
NORAD_CAT_ID   = 16182
ELEMENT_SET_NO = 999
REV_AT_EPOCH   = 8782
BSTAR          = -.299976E-5
MEAN_MOTION_DOT = -.54E-6
MEAN_MOTION_DDOT = 0

CCSDS_OMM_VERS = 2.0
CREATION_DATE  = 
ORIGINATOR     = 

OBJECT_NAME    = SL-14 R/B
OBJECT_ID      = 1986-006B
CENTER_NAME    = EARTH
REF_FRAME      = TEME
TIME_SYSTEM    = UTC
MEAN_ELEMENT_THEORY = SGP/SGP4

EPOCH          = 2026-03-13T23:05:30.428736
MEAN_MOTION    = 14.86821655
ECCENTRICITY   = .00750726
INCLINATION    = 82.5236
RA_OF_ASC_NODE = 255.7149
ARG_OF_PERICENTER = 258.3339
MEAN_ANOMALY   = 100.9446

EPHEMERIS_TYPE = 0
CLASSIFICATION_TYPE = U
NORAD_CAT_ID   = 16496
ELEMENT_SET_NO = 999
REV_AT_EPOCH   = 14984
BSTAR          = .82985752E-4
MEAN_MOTION_DOT = .804E-5
MEAN_MOTION_DDOT = 0

CCSDS_OMM_VERS = 2.0
CREATION_DATE  = 
ORIGINATOR     = 

OBJECT_NAME    = COSMOS 1743
OBJECT_ID      = 1986-034A
CENTER_NAME    = EARTH
REF_FRAME      = TEME
TIME_SYSTEM    = UTC
MEAN_ELEMENT_THEORY = SGP/SGP4

EPOCH          = 2026-03-13T22:38:22.412544
MEAN_MOTION    = 15.58879274
ECCENTRICITY   = .00016071
INCLINATION    = 82.5292
RA_OF_ASC_NODE = 69.3651
ARG_OF_PERICENTER = 252.8944
MEAN_ANOMALY   = 107.2137

EPHEMERIS_TYPE = 0
CLASSIFICATION_TYPE = U
NORAD_CAT_ID   = 16719
ELEMENT_SET_NO = 999
REV_AT_EPOCH   = 18091
BSTAR          = .5008376E-3
MEAN_MOTION_DOT = .38915E-3
MEAN_MOTION_DDOT = 0

